ISS (ZARYA)             
1 25544U 98067A   26015.85360567  .00008878  00000+0  16719-3 0  9991
2 25544  51.6334 333.5896 0007768  22.8636 337.2697 15.49315338548147
CSS (TIANHE)            
1 48274U 21035A   26015.77531291  .00012798  00000+0  15408-3 0  9992
2 48274  41.4651 169.8546 0011346 291.9793  67.9840 15.60536581269340
ISS (NAUKA)             
1 49044U 21066A   26015.85360567  .00008878  00000+0  16719-3 0  9997
2 49044  51.6334 333.5896 0007768  22.8636 337.2697 15.49315338230449
FREGAT DEB              
1 49271U 11037PF  26015.24184448  .00034049  00000+0  65421-1 0  9992
2 49271  51.5970 100.2711 0901721 297.7796  53.4474 12.35792458206079
CSS (WENTIAN)           
1 53239U 22085A   26015.77531291  .00012798  00000+0  15408-3 0  9995
2 53239  41.4651 169.8546 0011346 291.9793  67.9840 15.60536581173846
CSS (MENGTIAN)          
1 54216U 22143A   26015.77531291  .00012798  00000+0  15408-3 0  9996
2 54216  41.4651 169.8546 0011346 291.9793  67.9840 15.60536581158643
SHENZHOU-20 (SZ-20)     
1 63632U 25082A   26015.77531291  .00012798  00000+0  15408-3 0  9993
2 63632  41.4651 169.8546 0011346 291.9793  67.9840 15.60536581255306
PROGRESS-MS 31          
1 64751U 25146A   26015.85360567  .00008878  00000+0  16719-3 0  9992
2 64751  51.6334 333.5896 0007768  22.8636 337.2697 15.49315338  6756
TIANZHOU-9              
1 64786U 25149A   26015.77531291  .00012798  00000+0  15408-3 0  9998
2 64786  41.4651 169.8546 0011346 291.9793  67.9840 15.60536581255307
DRAGON CRS-33           
1 65304U 25186A   26015.85360567  .00008878  00000+0  16719-3 0  9991
2 65304  51.6334 333.5896 0007768  22.8636 337.2697 15.49315338   115
PROGRESS-MS 32          
1 65586U 25204A   26015.85360567  .00008878  00000+0  16719-3 0  9994
2 65586  51.6334 333.5896 0007768  22.8636 337.2697 15.49315338   274
CYGNUS NG-23            
1 65616U 25208A   26015.85360567  .00008878  00000+0  16719-3 0  9992
2 65616  51.6334 333.5896 0007768  22.8636 337.2697 15.49315338   223
